start=new Date('2021-11-13T00:00:00.000Z').valueOf();
sats=[{"FILE":"3213639","MEAN_ANOMALY":"288.8556","NORAD_CAT_ID":"44969","ARG_OF_PERICENTER":"71.2627","OBJECT_ID":"2020-001BH","TLE_LINE1":"1 44969U 20001BH  21316.95706850  .00002012  00000-0  15394-3 0  9998","CLASSIFICATION_TYPE":"U","DECAY_DATE":null,"REV_AT_EPOCH":"10260","MEAN_MOTION_DOT":"0.00002012","COUNTRY_CODE":"US","CENTER_NAME":"EARTH","TLE_LINE2":"2 44969  53.0532 189.3375 0001795  71.2627 288.8556 15.06405359102604","MEAN_MOTION":"15.06405359","TIME_SYSTEM":"UTC","REF_FRAME":"TEME","RA_OF_ASC_NODE":"189.3375","APOAPSIS":"548.440","MEAN_ELEMENT_THEORY":"SGP4","BSTAR":"0.00015394000000","SITE":"AFETR","GP_ID":"189644302","PERIOD":"95.592","LAUNCH_DATE":"2020-01-07","OBJECT_NAME":"STARLINK-1092","PERIAPSIS":"545.954","RCS_SIZE":"LARGE","MEAN_MOTION_DDOT":"0.0000000000000","ECCENTRICITY":"0.00017950","EPHEMERIS_TYPE":"0","EPOCH":"2021-11-12T22:58:10.718400","OBJECT_TYPE":"PAYLOAD","ELEMENT_SET_NO":"999","SEMIMAJOR_AXIS":"6925.332","INCLINATION":"53.0532"},{"SEMIMAJOR_AXIS":"6925.353","INCLINATION":"53.0547","OBJECT_TYPE":"PAYLOAD","ELEMENT_SET_NO":"999","ECCENTRICITY":"0.00018690","EPHEMERIS_TYPE":"0","EPOCH":"2021-11-12T22:26:20.290848","PERIAPSIS":"545.923","RCS_SIZE":"LARGE","MEAN_MOTION_DDOT":"0.0000000000000","OBJECT_NAME":"STARLINK-1093","SITE":"AFETR","GP_ID":"189643570","PERIOD":"95.592","LAUNCH_DATE":"2020-01-07","BSTAR":"0.00006947400000","MEAN_ELEMENT_THEORY":"SGP4","REF_FRAME":"TEME","RA_OF_ASC_NODE":"189.4451","APOAPSIS":"548.512","CENTER_NAME":"EARTH","TLE_LINE2":"2 44970  53.0547 189.4451 0001869  75.0818 285.0378 15.06398695102597","MEAN_MOTION":"15.06398695","TIME_SYSTEM":"UTC","REV_AT_EPOCH":"10259","MEAN_MOTION_DOT":"0.00000753","COUNTRY_CODE":"US","CLASSIFICATION_TYPE":"U","DECAY_DATE":null,"ARG_OF_PERICENTER":"75.0818","OBJECT_ID":"2020-001BJ","TLE_LINE1":"1 44970U 20001BJ  21316.93495707  .00000753  00000-0  69474-4 0  9993","FILE":"3213639","MEAN_ANOMALY":"285.0378","NORAD_CAT_ID":"44970"},{"FILE":"3213639","MEAN_ANOMALY":"281.0386","NORAD_CAT_ID":"44972","OBJECT_ID":"2020-001BL","ARG_OF_PERICENTER":"79.0750","TLE_LINE1":"1 44972U 20001BL  21316.90546034  .00001156  00000-0  96478-4 0  9994","CLASSIFICATION_TYPE":"U","DECAY_DATE":null,"REV_AT_EPOCH":"10260","MEAN_MOTION_DOT":"0.00001156","COUNTRY_CODE":"US","CENTER_NAME":"EARTH","TLE_LINE2":"2 44972  53.0531 189.5631 0001308  79.0750 281.0386 15.06395730102604","MEAN_MOTION":"15.06395730","TIME_SYSTEM":"UTC","REF_FRAME":"TEME","RA_OF_ASC_NODE":"189.5631","APOAPSIS":"548.132","MEAN_ELEMENT_THEORY":"SGP4","BSTAR":"0.00009647800000","SITE":"AFETR","GP_ID":"189643818","LAUNCH_DATE":"2020-01-07","PERIOD":"95.592","OBJECT_NAME":"STARLINK-1107","PERIAPSIS":"546.321","RCS_SIZE":"LARGE","MEAN_MOTION_DDOT":"0.0000000000000","ECCENTRICITY":"0.00013080","EPHEMERIS_TYPE":"0","EPOCH":"2021-11-12T21:43:51.773376","ELEMENT_SET_NO":"999","OBJECT_TYPE":"PAYLOAD","INCLINATION":"53.0531","SEMIMAJOR_AXIS":"6925.362"},{"SITE":"AFETR","LAUNCH_DATE":"2020-01-07","GP_ID":"189644558","PERIOD":"95.592","BSTAR":"-0.00000793200000","OBJECT_NAME":"STARLINK-1115","ECCENTRICITY":"0.00018470","EPHEMERIS_TYPE":"0","EPOCH":"2021-11-12T22:47:33.057888","PERIAPSIS":"545.935","RCS_SIZE":"LARGE","MEAN_MOTION_DDOT":"0.0000000000000","SEMIMAJOR_AXIS":"6925.349","INCLINATION":"53.0548","ELEMENT_SET_NO":"999","OBJECT_TYPE":"PAYLOAD","OBJECT_ID":"2020-001BM","ARG_OF_PERICENTER":"74.6463","TLE_LINE1":"1 44973U 20001BM  21316.94968817 -.00000400  00000-0 -79320-5 0  9997","FILE":"3213639","MEAN_ANOMALY":"285.4730","NORAD_CAT_ID":"44973","CLASSIFICATION_TYPE":"U","DECAY_DATE":null,"CENTER_NAME":"EARTH","TLE_LINE2":"2 44973  53.0548 189.3741 0001847  74.6463 285.4730 15.06399784102607","MEAN_MOTION":"15.06399784","TIME_SYSTEM":"UTC","REV_AT_EPOCH":"10260","MEAN_MOTION_DOT":"-0.00000400","COUNTRY_CODE":"US","MEAN_ELEMENT_THEORY":"SGP4","RA_OF_ASC_NODE":"189.3741","REF_FRAME":"TEME","APOAPSIS":"548.493"},{"COUNTRY_CODE":"US","MEAN_MOTION_DOT":"0.00001317","REV_AT_EPOCH":"9893","TIME_SYSTEM":"UTC","MEAN_MOTION":"15.06406789","TLE_LINE2":"2 45044  53.0532 149.4895 0001768  74.1144 286.0040 15.06406789 98935","CENTER_NAME":"EARTH","APOAPSIS":"548.417","REF_FRAME":"TEME","RA_OF_ASC_NODE":"149.4895","MEAN_ELEMENT_THEORY":"SGP4","NORAD_CAT_ID":"45044","MEAN_ANOMALY":"286.0040","FILE":"3213639","TLE_LINE1":"1 45044U 20006A   21316.92390656  .00001317  00000-0  10729-3 0  9992","OBJECT_ID":"2020-006A","ARG_OF_PERICENTER":"74.1144","DECAY_DATE":null,"CLASSIFICATION_TYPE":"U","MEAN_MOTION_DDOT":"0.0000000000000","RCS_SIZE":"LARGE","PERIAPSIS":"545.968","EPOCH":"2021-11-12T22:10:25.526784","EPHEMERIS_TYPE":"0","ECCENTRICITY":"0.00017680","OBJECT_TYPE":"PAYLOAD","ELEMENT_SET_NO":"999","INCLINATION":"53.0532","SEMIMAJOR_AXIS":"6925.328","BSTAR":"0.00010729000000","GP_ID":"189644064","LAUNCH_DATE":"2020-01-29","PERIOD":"95.592","SITE":"AFETR","OBJECT_NAME":"STARLINK-1132"},{"PERIOD":"95.593","GP_ID":"189644309","LAUNCH_DATE":"2020-01-29","SITE":"AFETR","BSTAR":"-0.00011418000000","OBJECT_NAME":"STARLINK-1120","EPOCH":"2021-11-12T21:51:49.891104","EPHEMERIS_TYPE":"0","ECCENTRICITY":"0.00017650","MEAN_MOTION_DDOT":"0.0000000000000","RCS_SIZE":"LARGE","PERIAPSIS":"546.017","INCLINATION":"53.0526","SEMIMAJOR_AXIS":"6925.375","OBJECT_TYPE":"PAYLOAD","ELEMENT_SET_NO":"999","TLE_LINE1":"1 45045U 20006B   21316.91099411 -.00001982  00000-0 -11418-3 0  9993","OBJECT_ID":"2020-006B","ARG_OF_PERICENTER":"72.3230","NORAD_CAT_ID":"45045","MEAN_ANOMALY":"287.7951","FILE":"3213639","DECAY_DATE":null,"CLASSIFICATION_TYPE":"U","TIME_SYSTEM":"UTC","TLE_LINE2":"2 45045  53.0526 169.5433 0001765  72.3230 287.7951 15.06391462 98652","MEAN_MOTION":"15.06391462","CENTER_NAME":"EARTH","COUNTRY_CODE":"US","MEAN_MOTION_DOT":"-0.00001982","REV_AT_EPOCH":"9865","MEAN_ELEMENT_THEORY":"SGP4","APOAPSIS":"548.462","RA_OF_ASC_NODE":"169.5433","REF_FRAME":"TEME"},{"OBJECT_NAME":"STARLINK-1129","BSTAR":"0.00025400000000","LAUNCH_DATE":"2020-01-29","GP_ID":"189643577","PERIOD":"95.459","SITE":"AFETR","OBJECT_TYPE":"PAYLOAD","ELEMENT_SET_NO":"999","INCLINATION":"52.9970","SEMIMAJOR_AXIS":"6918.905","RCS_SIZE":"LARGE","MEAN_MOTION_DDOT":"0.0000000000000","PERIAPSIS":"539.422","EPHEMERIS_TYPE":"0","EPOCH":"2021-11-12T20:47:47.637312","ECCENTRICITY":"0.00019480","DECAY_DATE":null,"CLASSIFICATION_TYPE":"U","MEAN_ANOMALY":"261.9639","NORAD_CAT_ID":"45046","FILE":"3213639","OBJECT_ID":"2020-006C","ARG_OF_PERICENTER":"98.1571","TLE_LINE1":"1 45046U 20006C   21316.86652358  .00003721  00000-0  25400-3 0  9990","APOAPSIS":"542.118","REF_FRAME":"TEME","RA_OF_ASC_NODE":"165.9350","MEAN_ELEMENT_THEORY":"SGP4","MEAN_MOTION_DOT":"0.00003721","COUNTRY_CODE":"US","REV_AT_EPOCH":"9867","TIME_SYSTEM":"UTC","CENTER_NAME":"EARTH","TLE_LINE2":"2 45046  52.9970 165.9350 0001948  98.1571 261.9639 15.08504809 98671","MEAN_MOTION":"15.08504809"},{"REV_AT_EPOCH":"9864","COUNTRY_CODE":"US","MEAN_MOTION_DOT":"0.00000624","MEAN_MOTION":"15.06386713","TLE_LINE2":"2 45047  53.0533 169.8329 0001485  78.4514 281.6641 15.06386713 98641","CENTER_NAME":"EARTH","TIME_SYSTEM":"UTC","RA_OF_ASC_NODE":"169.8329","REF_FRAME":"TEME","APOAPSIS":"548.283","MEAN_ELEMENT_THEORY":"SGP4","FILE":"3213639","NORAD_CAT_ID":"45047","MEAN_ANOMALY":"281.6641","TLE_LINE1":"1 45047U 20006D   21316.84833780  .00000624  00000-0  60822-4 0  9996","OBJECT_ID":"2020-006D","ARG_OF_PERICENTER":"78.4514","CLASSIFICATION_TYPE":"U","DECAY_DATE":null,"PERIAPSIS":"546.226","MEAN_MOTION_DDOT":"0.0000000000000","RCS_SIZE":"LARGE","ECCENTRICITY":"0.00014850","EPOCH":"2021-11-12T20:21:36.385920","EPHEMERIS_TYPE":"0","ELEMENT_SET_NO":"999","OBJECT_TYPE":"PAYLOAD","INCLINATION":"53.0533","SEMIMAJOR_AXIS":"6925.389","BSTAR":"0.00006082200000","SITE":"AFETR","LAUNCH_DATE":"2020-01-29","GP_ID":"189643825","PERIOD":"95.593","OBJECT_NAME":"STARLINK-1131"},{"ARG_OF_PERICENTER":"69.5027","OBJECT_ID":"2020-006E","TLE_LINE1":"1 45048U 20006E   21316.85570272  .00000825  00000-0  74319-4 0  9991","FILE":"3213639","MEAN_ANOMALY":"290.6167","NORAD_CAT_ID":"45048","CLASSIFICATION_TYPE":"U","DECAY_DATE":null,"CENTER_NAME":"EARTH","TLE_LINE2":"2 45048  53.0530 169.7930 0001915  69.5027 290.6167 15.06398697 98641","MEAN_MOTION":"15.06398697","TIME_SYSTEM":"UTC","REV_AT_EPOCH":"9864","MEAN_MOTION_DOT":"0.00000825","COUNTRY_CODE":"US","MEAN_ELEMENT_THEORY":"SGP4","REF_FRAME":"TEME","RA_OF_ASC_NODE":"169.7930","APOAPSIS":"548.544","SITE":"AFETR","GP_ID":"189644565","PERIOD":"95.592","LAUNCH_DATE":"2020-01-29","BSTAR":"0.00007431900000","OBJECT_NAME":"STARLINK-1134","ECCENTRICITY":"0.00019150","EPHEMERIS_TYPE":"0","EPOCH":"2021-11-12T20:32:12.715008","PERIAPSIS":"545.891","RCS_SIZE":"LARGE","MEAN_MOTION_DDOT":"0.0000000000000","SEMIMAJOR_AXIS":"6925.353","INCLINATION":"53.0530","ELEMENT_SET_NO":"999","OBJECT_TYPE":"PAYLOAD"},{"CENTER_NAME":"EARTH","MEAN_MOTION":"15.06413729","TLE_LINE2":"2 45049  53.0533 169.7814 0001667  73.2049 286.9123 15.06413729 98640","TIME_SYSTEM":"UTC","REV_AT_EPOCH":"9864","MEAN_MOTION_DOT":"0.00002377","COUNTRY_CODE":"US","MEAN_ELEMENT_THEORY":"SGP4","RA_OF_ASC_NODE":"169.7814","REF_FRAME":"TEME","APOAPSIS":"548.326","OBJECT_ID":"2020-006F","ARG_OF_PERICENTER":"73.2049","TLE_LINE1":"1 45049U 20006F   21316.85939816  .00002377  00000-0  17836-3 0  9999","FILE":"3213639","MEAN_ANOMALY":"286.9123","NORAD_CAT_ID":"45049","CLASSIFICATION_TYPE":"U","DECAY_DATE":null,"ECCENTRICITY":"0.00016670","EPHEMERIS_TYPE":"0","EPOCH":"2021-11-12T20:37:32.001024","PERIAPSIS":"546.017","RCS_SIZE":"LARGE","MEAN_MOTION_DDOT":"0.0000000000000","INCLINATION":"53.0533","SEMIMAJOR_AXIS":"6925.306","ELEMENT_SET_NO":"999","OBJECT_TYPE":"PAYLOAD","SITE":"AFETR","LAUNCH_DATE":"2020-01-29","GP_ID":"189644810","PERIOD":"95.591","BSTAR":"0.00017836000000","OBJECT_NAME":"STARLINK-1135"}];
